start=new Date('2021-09-29T00:00:00.000Z').valueOf();
sats=[{"MEAN_ANOMALY":"91.5218","SEMIMAJOR_AXIS":"6877.579","OBJECT_NAME":"STARLINK-2725","MEAN_MOTION_DDOT":"0.0000000000000","EPHEMERIS_TYPE":"0","ARG_OF_PERICENTER":"43.9276","REF_FRAME":"TEME","RA_OF_ASC_NODE":"167.1945","PERIAPSIS":"498.228","NORAD_CAT_ID":"48681","INCLINATION":"53.0490","DECAY_DATE":null,"TLE_LINE1":"1 48681U 21044AV  21271.91667824 -.01060959  00000-0 -49906-1 0  9995","TLE_LINE2":"2 48681  53.0490 167.1945 0001769  43.9276  91.5218 15.22121559 20569","MEAN_ELEMENT_THEORY":"SGP4","MEAN_MOTION_DOT":"-0.01060959","PERIOD":"94.605","REV_AT_EPOCH":"2056","CLASSIFICATION_TYPE":"U","EPOCH":"2021-09-28T22:00:00.999936","LAUNCH_DATE":"2021-05-26","ECCENTRICITY":"0.00017690","APOAPSIS":"500.661","CENTER_NAME":"EARTH","GP_ID":"185722907","RCS_SIZE":"LARGE","SITE":"AFETR","FILE":"3132911","BSTAR":"-0.04990600000000","TIME_SYSTEM":"UTC","OBJECT_TYPE":"PAYLOAD","OBJECT_ID":"2021-044AV","ELEMENT_SET_NO":"999","COUNTRY_CODE":"US","MEAN_MOTION":"15.22121559"},{"COUNTRY_CODE":"US","MEAN_MOTION":"15.69912765","ELEMENT_SET_NO":"999","OBJECT_ID":"2021-044AW","OBJECT_TYPE":"PAYLOAD","FILE":"3132662","BSTAR":"-0.01016900000000","TIME_SYSTEM":"UTC","SITE":"AFETR","GP_ID":"185718074","RCS_SIZE":"LARGE","CENTER_NAME":"EARTH","APOAPSIS":"361.921","ECCENTRICITY":"0.00041150","CLASSIFICATION_TYPE":"U","EPOCH":"2021-09-28T14:00:01.000224","LAUNCH_DATE":"2021-05-26","PERIOD":"91.725","MEAN_MOTION_DOT":"-0.01111512","REV_AT_EPOCH":"370","TLE_LINE2":"2 48682  53.0442 164.4950 0004115 343.7437  92.9614 15.69912765  3701","MEAN_ELEMENT_THEORY":"SGP4","DECAY_DATE":null,"TLE_LINE1":"1 48682U 21044AW  21271.58334491 -.01111512  00000-0 -10169-1 0  9991","INCLINATION":"53.0442","NORAD_CAT_ID":"48682","PERIAPSIS":"356.376","REF_FRAME":"TEME","RA_OF_ASC_NODE":"164.4950","ARG_OF_PERICENTER":"343.7437","EPHEMERIS_TYPE":"0","SEMIMAJOR_AXIS":"6737.284","MEAN_MOTION_DDOT":"0.0000000000000","OBJECT_NAME":"STARLINK-2743","MEAN_ANOMALY":"92.9614"},{"INCLINATION":"53.0443","TLE_LINE1":"1 48683U 21044AX  21271.58334491 -.01097154  00000-0 -93772-2 0  9999","DECAY_DATE":null,"MEAN_ELEMENT_THEORY":"SGP4","TLE_LINE2":"2 48683  53.0443 164.4824 0003694   2.7114  80.4451 15.71491774  3704","PERIAPSIS":"352.148","NORAD_CAT_ID":"48683","ARG_OF_PERICENTER":"2.7114","RA_OF_ASC_NODE":"164.4824","REF_FRAME":"TEME","MEAN_ANOMALY":"80.4451","OBJECT_NAME":"STARLINK-2756","MEAN_MOTION_DDOT":"0.0000000000000","SEMIMAJOR_AXIS":"6732.770","EPHEMERIS_TYPE":"0","OBJECT_ID":"2021-044AX","ELEMENT_SET_NO":"999","MEAN_MOTION":"15.71491774","COUNTRY_CODE":"US","SITE":"AFETR","TIME_SYSTEM":"UTC","BSTAR":"-0.00937720000000","FILE":"3132662","OBJECT_TYPE":"PAYLOAD","APOAPSIS":"357.122","CENTER_NAME":"EARTH","RCS_SIZE":"LARGE","GP_ID":"185717427","REV_AT_EPOCH":"370","PERIOD":"91.633","MEAN_MOTION_DOT":"-0.01097154","LAUNCH_DATE":"2021-05-26","CLASSIFICATION_TYPE":"U","EPOCH":"2021-09-28T14:00:01.000224","ECCENTRICITY":"0.00036940"},{"OBJECT_TYPE":"PAYLOAD","TIME_SYSTEM":"UTC","FILE":"3132662","BSTAR":"-0.00003616100000","SITE":"AFETR","MEAN_MOTION":"15.06408270","COUNTRY_CODE":"US","OBJECT_ID":"2021-044AY","ELEMENT_SET_NO":"999","ECCENTRICITY":"0.00018020","LAUNCH_DATE":"2021-05-26","EPOCH":"2021-09-28T10:07:28.381728","CLASSIFICATION_TYPE":"U","REV_AT_EPOCH":"1953","MEAN_MOTION_DOT":"-0.00000820","PERIOD":"95.592","RCS_SIZE":"LARGE","GP_ID":"185717967","CENTER_NAME":"EARTH","APOAPSIS":"548.436","NORAD_CAT_ID":"48684","PERIAPSIS":"545.940","MEAN_ELEMENT_THEORY":"SGP4","TLE_LINE2":"2 48684  53.0535 173.7375 0001802  65.7754 294.3423 15.06408270 19539","TLE_LINE1":"1 48684U 21044AY  21271.42185627 -.00000820  00000-0 -36161-4 0  9992","DECAY_DATE":null,"INCLINATION":"53.0535","EPHEMERIS_TYPE":"0","MEAN_MOTION_DDOT":"0.0000000000000","OBJECT_NAME":"STARLINK-2741","SEMIMAJOR_AXIS":"6925.323","MEAN_ANOMALY":"294.3423","RA_OF_ASC_NODE":"173.7375","REF_FRAME":"TEME","ARG_OF_PERICENTER":"65.7754"},{"MEAN_ELEMENT_THEORY":"SGP4","TLE_LINE2":"2 48685  53.0431 162.8264 0004179   2.6839 172.4897 15.72358182 20560","TLE_LINE1":"1 48685U 21044AZ  21271.91667824 -.01029973  00000-0 -84213-2 0  9991","DECAY_DATE":null,"INCLINATION":"53.0431","NORAD_CAT_ID":"48685","PERIAPSIS":"349.349","RA_OF_ASC_NODE":"162.8264","REF_FRAME":"TEME","ARG_OF_PERICENTER":"2.6839","EPHEMERIS_TYPE":"0","MEAN_MOTION_DDOT":"0.0000000000000","OBJECT_NAME":"STARLINK-2751","SEMIMAJOR_AXIS":"6730.296","MEAN_ANOMALY":"172.4897","MEAN_MOTION":"15.72358182","COUNTRY_CODE":"US","ELEMENT_SET_NO":"999","OBJECT_ID":"2021-044AZ","OBJECT_TYPE":"PAYLOAD","TIME_SYSTEM":"UTC","FILE":"3132922","BSTAR":"-0.00842130000000","SITE":"AFETR","RCS_SIZE":"LARGE","GP_ID":"185723577","CENTER_NAME":"EARTH","APOAPSIS":"354.974","ECCENTRICITY":"0.00041790","LAUNCH_DATE":"2021-05-26","EPOCH":"2021-09-28T22:00:00.999936","CLASSIFICATION_TYPE":"U","REV_AT_EPOCH":"2056","PERIOD":"91.582","MEAN_MOTION_DOT":"-0.01029973"},{"RA_OF_ASC_NODE":"165.4697","REF_FRAME":"TEME","ARG_OF_PERICENTER":"86.7771","MEAN_ANOMALY":"171.8989","EPHEMERIS_TYPE":"0","SEMIMAJOR_AXIS":"6805.338","MEAN_MOTION_DDOT":"0.0000000000000","OBJECT_NAME":"STARLINK-2629","INCLINATION":"53.0455","TLE_LINE2":"2 48686  53.0455 165.4697 0001256  86.7771 171.8989 15.46422756  3709","MEAN_ELEMENT_THEORY":"SGP4","DECAY_DATE":null,"TLE_LINE1":"1 48686U 21044BA  21271.58334491 -.01079133  00000-0 -23695-1 0  9995","PERIAPSIS":"426.348","NORAD_CAT_ID":"48686","APOAPSIS":"428.058","GP_ID":"185718182","RCS_SIZE":"LARGE","CENTER_NAME":"EARTH","MEAN_MOTION_DOT":"-0.01079133","PERIOD":"93.118","REV_AT_EPOCH":"370","ECCENTRICITY":"0.00012560","CLASSIFICATION_TYPE":"U","EPOCH":"2021-09-28T14:00:01.000224","LAUNCH_DATE":"2021-05-26","MEAN_MOTION":"15.46422756","COUNTRY_CODE":"US","OBJECT_ID":"2021-044BA","ELEMENT_SET_NO":"999","BSTAR":"-0.02369500000000","FILE":"3132662","TIME_SYSTEM":"UTC","SITE":"AFETR","OBJECT_TYPE":"PAYLOAD"},{"NORAD_CAT_ID":"48687","PERIAPSIS":"346.956","TLE_LINE2":"2 48687  53.0440 162.8076 0003927   9.5905 167.5949 15.73257002 20566","MEAN_ELEMENT_THEORY":"SGP4","DECAY_DATE":null,"TLE_LINE1":"1 48687U 21044BB  21271.91667824 -.00107486  00000-0 -76876-3 0  9995","INCLINATION":"53.0440","EPHEMERIS_TYPE":"0","SEMIMAJOR_AXIS":"6727.733","MEAN_MOTION_DDOT":"0.0000000000000","OBJECT_NAME":"STARLINK-2627","MEAN_ANOMALY":"167.5949","REF_FRAME":"TEME","RA_OF_ASC_NODE":"162.8076","ARG_OF_PERICENTER":"9.5905","OBJECT_TYPE":"PAYLOAD","FILE":"3132928","BSTAR":"-0.00076876000000","TIME_SYSTEM":"UTC","SITE":"AFETR","MEAN_MOTION":"15.73257002","COUNTRY_CODE":"US","ELEMENT_SET_NO":"999","OBJECT_ID":"2021-044BB","ECCENTRICITY":"0.00039270","EPOCH":"2021-09-28T22:00:00.999936","CLASSIFICATION_TYPE":"U","LAUNCH_DATE":"2021-05-26","MEAN_MOTION_DOT":"-0.00107486","PERIOD":"91.530","REV_AT_EPOCH":"2056","GP_ID":"185723189","RCS_SIZE":"LARGE","CENTER_NAME":"EARTH","APOAPSIS":"352.240"},{"COUNTRY_CODE":"US","MEAN_MOTION":"15.73241683","ELEMENT_SET_NO":"999","OBJECT_ID":"2021-044BC","OBJECT_TYPE":"PAYLOAD","TIME_SYSTEM":"UTC","BSTAR":"-0.00056561000000","FILE":"3132928","SITE":"AFETR","RCS_SIZE":"LARGE","GP_ID":"185723679","CENTER_NAME":"EARTH","APOAPSIS":"352.310","ECCENTRICITY":"0.00039670","LAUNCH_DATE":"2021-05-26","CLASSIFICATION_TYPE":"U","EPOCH":"2021-09-28T22:00:00.999936","REV_AT_EPOCH":"2056","MEAN_MOTION_DOT":"-0.00079456","PERIOD":"91.531","MEAN_ELEMENT_THEORY":"SGP4","TLE_LINE2":"2 48688  53.0440 162.8059 0003967   3.9895 173.8289 15.73241683 20563","TLE_LINE1":"1 48688U 21044BC  21271.91667824 -.00079456  00000-0 -56561-3 0  9990","DECAY_DATE":null,"INCLINATION":"53.0440","NORAD_CAT_ID":"48688","PERIAPSIS":"346.972","REF_FRAME":"TEME","RA_OF_ASC_NODE":"162.8059","ARG_OF_PERICENTER":"3.9895","EPHEMERIS_TYPE":"0","MEAN_MOTION_DDOT":"0.0000000000000","OBJECT_NAME":"STARLINK-2742","SEMIMAJOR_AXIS":"6727.776","MEAN_ANOMALY":"173.8289"},{"PERIAPSIS":"356.596","NORAD_CAT_ID":"48689","INCLINATION":"53.0433","DECAY_DATE":null,"TLE_LINE1":"1 48689U 21044BD  21271.91667824 -.01067291  00000-0 -94976-2 0  9997","TLE_LINE2":"2 48689  53.0433 162.8791 0001332  69.7042  71.6401 15.70491692 20562","MEAN_ELEMENT_THEORY":"SGP4","MEAN_ANOMALY":"71.6401","SEMIMAJOR_AXIS":"6735.628","MEAN_MOTION_DDOT":"0.0000000000000","OBJECT_NAME":"STARLINK-2617","EPHEMERIS_TYPE":"0","ARG_OF_PERICENTER":"69.7042","RA_OF_ASC_NODE":"162.8791","REF_FRAME":"TEME","SITE":"AFETR","FILE":"3132929","BSTAR":"-0.00949760000000","TIME_SYSTEM":"UTC","OBJECT_TYPE":"PAYLOAD","OBJECT_ID":"2021-044BD","ELEMENT_SET_NO":"999","COUNTRY_CODE":"US","MEAN_MOTION":"15.70491692","MEAN_MOTION_DOT":"-0.01067291","PERIOD":"91.691","REV_AT_EPOCH":"2056","CLASSIFICATION_TYPE":"U","EPOCH":"2021-09-28T22:00:00.999936","LAUNCH_DATE":"2021-05-26","ECCENTRICITY":"0.00013320","APOAPSIS":"358.390","CENTER_NAME":"EARTH","GP_ID":"185723192","RCS_SIZE":"LARGE"},{"ECCENTRICITY":"0.00014670","LAUNCH_DATE":"2021-05-26","EPOCH":"2021-09-28T22:00:00.999936","CLASSIFICATION_TYPE":"U","REV_AT_EPOCH":"2056","PERIOD":"94.545","MEAN_MOTION_DOT":"-0.00933187","RCS_SIZE":"LARGE","GP_ID":"185723962","CENTER_NAME":"EARTH","APOAPSIS":"497.550","OBJECT_TYPE":"PAYLOAD","TIME_SYSTEM":"UTC","FILE":"3132966","BSTAR":"-0.04220000000000","SITE":"AFETR","MEAN_MOTION":"15.23085697","COUNTRY_CODE":"US","OBJECT_ID":"2021-044BE","ELEMENT_SET_NO":"999","EPHEMERIS_TYPE":"0","MEAN_MOTION_DDOT":"0.0000000000000","OBJECT_NAME":"STARLINK-2740","SEMIMAJOR_AXIS":"6874.677","MEAN_ANOMALY":"38.4494","REF_FRAME":"TEME","RA_OF_ASC_NODE":"167.0857","ARG_OF_PERICENTER":"54.8595","NORAD_CAT_ID":"48690","PERIAPSIS":"495.533","MEAN_ELEMENT_THEORY":"SGP4","TLE_LINE2":"2 48690  53.0435 167.0857 0001467  54.8595  38.4494 15.23085697 20568","TLE_LINE1":"1 48690U 21044BE  21271.91667824 -.00933187  00000-0 -42200-1 0  9996","DECAY_DATE":null,"INCLINATION":"53.0435"}];
